QIANFAN-18              
1 60396U 24140T   26066.59040284  .00000082  00000+0  10886-3 0  9992
2 60396  88.9716 290.1954 0012978 308.8191  51.1801 13.51003951 78988
QIANFAN-19              
1 61552U 24185A   26066.55421686  .00000662  00000+0  33863-3 0  9995
2 61552  88.9761  68.2021 0008447  46.0051 314.1831 14.14389600 81655
QIANFAN-20              
1 61553U 24185B   26066.55963935  .00000633  00000+0  35832-3 0  9990
2 61553  88.9759  68.6109 0007865  78.2404 281.9662 14.08935931 81432
QIANFAN-21              
1 61554U 24185C   26066.57472855  .00000865  00000+0  37970-3 0  9991
2 61554  88.9680  67.0220 0013019  87.6153 272.6529 14.22731395 82036
QIANFAN-22              
1 61555U 24185D   26066.59866558  .00000336  00000+0  27879-3 0  9991
2 61555  88.9742  69.9307 0008634  95.3776 264.8380 13.86340096 80698
QIANFAN-23              
1 61556U 24185E   26066.55132087  .00000762  00000+0  37634-3 0  9994
2 61556  88.9754  67.9722 0009414  53.8334 306.3724 14.16395138 81750
QIANFAN-24              
1 61557U 24185F   26066.57616876  .00001056  00000+0  45437-3 0  9997
2 61557  88.9737  67.2356 0010412  33.5170 326.6679 14.23936401 82095
QIANFAN-25              
1 61558U 24185G   26066.55837429  .00000577  00000+0  34346-3 0  9999
2 61558  88.9751  68.5701 0011896  60.3378 299.8987 14.05997273 81428
QIANFAN-26              
1 61559U 24185H   26066.57078803  .00000271  00000+0  25757-3 0  9992
2 61559  88.9747  70.5769 0007746 108.3012 251.8998 13.77862412 80353
QIANFAN-27              
1 61560U 24185J   26066.57280004  .00000700  00000+0  27932-3 0  9996
2 61560  88.9751  66.9780 0008461  26.8614 333.3016 14.27445905 82268
QIANFAN-28              
1 61561U 24185K   26066.58127138  .00001205  00000+0  47794-3 0  9995
2 61561  88.9766  66.9842 0008065  28.1095 332.0534 14.28217526 82282
QIANFAN-29              
1 61562U 24185L   26066.61378999  .00000201  00000+0  29241-3 0  9995
2 61562  88.9720  72.5225 0010540 154.2662 205.9015 13.51044492 79253
QIANFAN-30              
1 61563U 24185M   26066.57884165  .00000204  00000+0  30226-3 0  9996
2 61563  88.9740  72.0840 0008815 139.0427 221.1387 13.50019494 79510
QIANFAN-31              
1 61564U 24185N   26066.56481101  .00000228  00000+0  29881-3 0  9990
2 61564  88.9725  71.7523 0008472 130.7713 229.4179 13.58003929 79674
QIANFAN-32              
1 61565U 24185P   26066.57447673  .00000164  00000+0  23583-3 0  9990
2 61565  88.9784  72.2447 0009896 167.2596 192.8807 13.50764579 79494
QIANFAN-33              
1 61566U 24185Q   26066.59180621  .00000516  00000+0  36285-3 0  9994
2 61566  88.9739  69.3287 0009256  68.8361 291.3805 13.96625031 81002
QIANFAN-34              
1 61567U 24185R   26066.56586555  .00000579  00000+0  36818-3 0  9999
2 61567  88.9716  68.7825 0008282  72.2558 287.9525 14.02385220 81241
