[{"OBJECT_NAME":"QIANFAN-18","OBJECT_ID":"2024-140T","EPOCH":"2026-03-07T14:10:10.805376","MEAN_MOTION":13.51003951,"ECCENTRICITY":0.00129784,"INCLINATION":88.9716,"RA_OF_ASC_NODE":290.1954,"ARG_OF_PERICENTER":308.8191,"MEAN_ANOMALY":51.1801,"EPHEMERIS_TYPE":0,"CLASSIFICATION_TYPE":"U","NORAD_CAT_ID":60396,"ELEMENT_SET_NO":999,"REV_AT_EPOCH":7898,"BSTAR":0.00010885805,"MEAN_MOTION_DOT":8.2e-7,"MEAN_MOTION_DDOT":0},{"OBJECT_NAME":"QIANFAN-19","OBJECT_ID":"2024-185A","EPOCH":"2026-03-07T13:18:04.336704","MEAN_MOTION":14.143896,"ECCENTRICITY":0.0008447,"INCLINATION":88.9761,"RA_OF_ASC_NODE":68.2021,"ARG_OF_PERICENTER":46.0051,"MEAN_ANOMALY":314.1831,"EPHEMERIS_TYPE":0,"CLASSIFICATION_TYPE":"U","NORAD_CAT_ID":61552,"ELEMENT_SET_NO":999,"REV_AT_EPOCH":8165,"BSTAR":0.00033862742,"MEAN_MOTION_DOT":6.62e-6,"MEAN_MOTION_DDOT":0},{"OBJECT_NAME":"QIANFAN-20","OBJECT_ID":"2024-185B","EPOCH":"2026-03-07T13:25:52.839840","MEAN_MOTION":14.08935931,"ECCENTRICITY":0.00078652,"INCLINATION":88.9759,"RA_OF_ASC_NODE":68.6109,"ARG_OF_PERICENTER":78.2404,"MEAN_ANOMALY":281.9662,"EPHEMERIS_TYPE":0,"CLASSIFICATION_TYPE":"U","NORAD_CAT_ID":61553,"ELEMENT_SET_NO":999,"REV_AT_EPOCH":8143,"BSTAR":0.0003583195,"MEAN_MOTION_DOT":6.33e-6,"MEAN_MOTION_DDOT":0},{"OBJECT_NAME":"QIANFAN-21","OBJECT_ID":"2024-185C","EPOCH":"2026-03-07T13:47:36.546720","MEAN_MOTION":14.22731395,"ECCENTRICITY":0.00130191,"INCLINATION":88.968,"RA_OF_ASC_NODE":67.022,"ARG_OF_PERICENTER":87.6153,"MEAN_ANOMALY":272.6529,"EPHEMERIS_TYPE":0,"CLASSIFICATION_TYPE":"U","NORAD_CAT_ID":61554,"ELEMENT_SET_NO":999,"REV_AT_EPOCH":8203,"BSTAR":0.00037969922,"MEAN_MOTION_DOT":8.65e-6,"MEAN_MOTION_DDOT":0},{"OBJECT_NAME":"QIANFAN-22","OBJECT_ID":"2024-185D","EPOCH":"2026-03-07T14:22:04.706112","MEAN_MOTION":13.86340096,"ECCENTRICITY":0.00086346,"INCLINATION":88.9742,"RA_OF_ASC_NODE":69.9307,"ARG_OF_PERICENTER":95.3776,"MEAN_ANOMALY":264.838,"EPHEMERIS_TYPE":0,"CLASSIFICATION_TYPE":"U","NORAD_CAT_ID":61555,"ELEMENT_SET_NO":999,"REV_AT_EPOCH":8069,"BSTAR":0.00027878681,"MEAN_MOTION_DOT":3.36e-6,"MEAN_MOTION_DDOT":0},{"OBJECT_NAME":"QIANFAN-23","OBJECT_ID":"2024-185E","EPOCH":"2026-03-07T13:13:54.123168","MEAN_MOTION":14.16395138,"ECCENTRICITY":0.00094149,"INCLINATION":88.9754,"RA_OF_ASC_NODE":67.9722,"ARG_OF_PERICENTER":53.8334,"MEAN_ANOMALY":306.3724,"EPHEMERIS_TYPE":0,"CLASSIFICATION_TYPE":"U","NORAD_CAT_ID":61556,"ELEMENT_SET_NO":999,"REV_AT_EPOCH":8175,"BSTAR":0.00037634421,"MEAN_MOTION_DOT":7.62e-6,"MEAN_MOTION_DDOT":0},{"OBJECT_NAME":"QIANFAN-24","OBJECT_ID":"2024-185F","EPOCH":"2026-03-07T13:49:40.980864","MEAN_MOTION":14.23936401,"ECCENTRICITY":0.0010412,"INCLINATION":88.9737,"RA_OF_ASC_NODE":67.2356,"ARG_OF_PERICENTER":33.517,"MEAN_ANOMALY":326.6679,"EPHEMERIS_TYPE":0,"CLASSIFICATION_TYPE":"U","NORAD_CAT_ID":61557,"ELEMENT_SET_NO":999,"REV_AT_EPOCH":8209,"BSTAR":0.00045436574,"MEAN_MOTION_DOT":1.056e-5,"MEAN_MOTION_DDOT":0},{"OBJECT_NAME":"QIANFAN-25","OBJECT_ID":"2024-185G","EPOCH":"2026-03-07T13:24:03.538656","MEAN_MOTION":14.05997273,"ECCENTRICITY":0.00118966,"INCLINATION":88.9751,"RA_OF_ASC_NODE":68.5701,"ARG_OF_PERICENTER":60.3378,"MEAN_ANOMALY":299.8987,"EPHEMERIS_TYPE":0,"CLASSIFICATION_TYPE":"U","NORAD_CAT_ID":61558,"ELEMENT_SET_NO":999,"REV_AT_EPOCH":8142,"BSTAR":0.00034346291,"MEAN_MOTION_DOT":5.77e-6,"MEAN_MOTION_DDOT":0},{"OBJECT_NAME":"QIANFAN-26","OBJECT_ID":"2024-185H","EPOCH":"2026-03-07T13:41:56.085792","MEAN_MOTION":13.77862412,"ECCENTRICITY":0.00077469,"INCLINATION":88.9747,"RA_OF_ASC_NODE":70.5769,"ARG_OF_PERICENTER":108.3012,"MEAN_ANOMALY":251.8998,"EPHEMERIS_TYPE":0,"CLASSIFICATION_TYPE":"U","NORAD_CAT_ID":61559,"ELEMENT_SET_NO":999,"REV_AT_EPOCH":8035,"BSTAR":0.00025757155,"MEAN_MOTION_DOT":2.71e-6,"MEAN_MOTION_DDOT":0},{"OBJECT_NAME":"QIANFAN-27","OBJECT_ID":"2024-185J","EPOCH":"2026-03-07T13:44:49.923456","MEAN_MOTION":14.27445905,"ECCENTRICITY":0.0008461,"INCLINATION":88.9751,"RA_OF_ASC_NODE":66.978,"ARG_OF_PERICENTER":26.8614,"MEAN_ANOMALY":333.3016,"EPHEMERIS_TYPE":0,"CLASSIFICATION_TYPE":"U","NORAD_CAT_ID":61560,"ELEMENT_SET_NO":999,"REV_AT_EPOCH":8226,"BSTAR":0.00027931585,"MEAN_MOTION_DOT":7.0e-6,"MEAN_MOTION_DDOT":0},{"OBJECT_NAME":"QIANFAN-28","OBJECT_ID":"2024-185K","EPOCH":"2026-03-07T13:57:01.847232","MEAN_MOTION":14.28217526,"ECCENTRICITY":0.0008065,"INCLINATION":88.9766,"RA_OF_ASC_NODE":66.9842,"ARG_OF_PERICENTER":28.1095,"MEAN_ANOMALY":332.0534,"EPHEMERIS_TYPE":0,"CLASSIFICATION_TYPE":"U","NORAD_CAT_ID":61561,"ELEMENT_SET_NO":999,"REV_AT_EPOCH":8228,"BSTAR":0.00047794069,"MEAN_MOTION_DOT":1.205e-5,"MEAN_MOTION_DDOT":0},{"OBJECT_NAME":"QIANFAN-29","OBJECT_ID":"2024-185L","EPOCH":"2026-03-07T14:43:51.455136","MEAN_MOTION":13.51044492,"ECCENTRICITY":0.00105403,"INCLINATION":88.972,"RA_OF_ASC_NODE":72.5225,"ARG_OF_PERICENTER":154.2662,"MEAN_ANOMALY":205.9015,"EPHEMERIS_TYPE":0,"CLASSIFICATION_TYPE":"U","NORAD_CAT_ID":61562,"ELEMENT_SET_NO":999,"REV_AT_EPOCH":7925,"BSTAR":0.0002924139,"MEAN_MOTION_DOT":2.01e-6,"MEAN_MOTION_DDOT":0},{"OBJECT_NAME":"QIANFAN-30","OBJECT_ID":"2024-185M","EPOCH":"2026-03-07T13:53:31.918560","MEAN_MOTION":13.50019494,"ECCENTRICITY":0.00088151,"INCLINATION":88.974,"RA_OF_ASC_NODE":72.084,"ARG_OF_PERICENTER":139.0427,"MEAN_ANOMALY":221.1387,"EPHEMERIS_TYPE":0,"CLASSIFICATION_TYPE":"U","NORAD_CAT_ID":61563,"ELEMENT_SET_NO":999,"REV_AT_EPOCH":7951,"BSTAR":0.00030226113,"MEAN_MOTION_DOT":2.04e-6,"MEAN_MOTION_DDOT":0},{"OBJECT_NAME":"QIANFAN-31","OBJECT_ID":"2024-185N","EPOCH":"2026-03-07T13:33:19.671264","MEAN_MOTION":13.58003929,"ECCENTRICITY":0.00084722,"INCLINATION":88.9725,"RA_OF_ASC_NODE":71.7523,"ARG_OF_PERICENTER":130.7713,"MEAN_ANOMALY":229.4179,"EPHEMERIS_TYPE":0,"CLASSIFICATION_TYPE":"U","NORAD_CAT_ID":61564,"ELEMENT_SET_NO":999,"REV_AT_EPOCH":7967,"BSTAR":0.00029880789,"MEAN_MOTION_DOT":2.28e-6,"MEAN_MOTION_DDOT":0},{"OBJECT_NAME":"QIANFAN-32","OBJECT_ID":"2024-185P","EPOCH":"2026-03-07T13:47:14.789472","MEAN_MOTION":13.50764579,"ECCENTRICITY":0.00098968,"INCLINATION":88.9784,"RA_OF_ASC_NODE":72.2447,"ARG_OF_PERICENTER":167.2596,"MEAN_ANOMALY":192.8807,"EPHEMERIS_TYPE":0,"CLASSIFICATION_TYPE":"U","NORAD_CAT_ID":61565,"ELEMENT_SET_NO":999,"REV_AT_EPOCH":7949,"BSTAR":0.00023582994,"MEAN_MOTION_DOT":1.64e-6,"MEAN_MOTION_DDOT":0},{"OBJECT_NAME":"QIANFAN-33","OBJECT_ID":"2024-185Q","EPOCH":"2026-03-07T14:12:12.056544","MEAN_MOTION":13.96625031,"ECCENTRICITY":0.00092562,"INCLINATION":88.9739,"RA_OF_ASC_NODE":69.3287,"ARG_OF_PERICENTER":68.8361,"MEAN_ANOMALY":291.3805,"EPHEMERIS_TYPE":0,"CLASSIFICATION_TYPE":"U","NORAD_CAT_ID":61566,"ELEMENT_SET_NO":999,"REV_AT_EPOCH":8100,"BSTAR":0.00036285174,"MEAN_MOTION_DOT":5.16e-6,"MEAN_MOTION_DDOT":0},{"OBJECT_NAME":"QIANFAN-34","OBJECT_ID":"2024-185R","EPOCH":"2026-03-07T13:34:50.783520","MEAN_MOTION":14.0238522,"ECCENTRICITY":0.00082824,"INCLINATION":88.9716,"RA_OF_ASC_NODE":68.7825,"ARG_OF_PERICENTER":72.2558,"MEAN_ANOMALY":287.9525,"EPHEMERIS_TYPE":0,"CLASSIFICATION_TYPE":"U","NORAD_CAT_ID":61567,"ELEMENT_SET_NO":999,"REV_AT_EPOCH":8124,"BSTAR":0.0003681762,"MEAN_MOTION_DOT":5.79e-6,"MEAN_MOTION_DDOT":0}]
